OBJECT_NAME,OBJECT_ID,EPOCH,MEAN_MOTION,ECCENTRICITY,INCLINATION,RA_OF_ASC_NODE,ARG_OF_PERICENTER,MEAN_ANOMALY,EPHEMERIS_TYPE,CLASSIFICATION_TYPE,NORAD_CAT_ID,ELEMENT_SET_NO,REV_AT_EPOCH,BSTAR,MEAN_MOTION_DOT,MEAN_MOTION_DDOT
STARLINK-5673,2023-015P,2026-06-13T16:06:32.060160,15.27580559,.0002143,43.0054,146.4536,281.6265,78.4347,0,U,55462,999,18540,.30712E-4,.583E-5,0
STARLINK-5677,2023-015Q,2026-06-13T16:49:00.255360,15.17604493,.0002767,42.9972,154.3580,103.5612,256.5544,0,U,55463,999,18531,.11945E-2,.24308E-3,0
STARLINK-5676,2023-015R,2026-06-13T05:27:48.005280,15.27580927,.00024452,43.0027,149.1429,280.2149,79.8427,0,U,55464,999,18533,.42890368E-4,.918E-5,0
STARLINK-5674,2023-015S,2026-06-13T16:12:05.679936,15.27579405,.0001454,43.0051,146.4812,265.9689,94.0996,0,U,55465,999,18540,.23242E-4,.377E-5,0
STARLINK-5628,2023-015T,2026-06-13T05:44:27.178080,15.27581351,.0001374,43.0054,149.2274,265.8350,94.2345,0,U,55466,999,18533,.38981E-4,.811E-5,0
STARLINK-5679,2023-015U,2026-06-13T16:00:59.566176,15.27573151,.0001603,43.0038,146.4232,274.3484,85.7185,0,U,55467,999,18540,-.15377E-4,-.685E-5,0
STARLINK-5672,2023-015V,2026-06-13T05:33:21.021984,15.27580425,.00016393,43.0053,149.1720,269.5608,90.5056,0,U,55468,999,18533,.30375003E-4,.574E-5,0
STARLINK-5681,2023-015W,2026-06-13T16:17:38.325120,15.27582111,.0002114,43.0090,146.5132,282.5351,77.5264,0,U,55469,999,18540,.23445E-4,.383E-5,0
STARLINK-5708,2023-015X,2026-06-13T05:38:54.392928,15.27578359,.0001252,43.0030,149.1998,266.4987,93.5722,0,U,55470,999,18533,.18022E-4,.234E-5,0
STARLINK-5711,2023-015Y,2026-06-13T16:04:41.842272,15.27586129,.0000876,42.9974,146.4362,301.6887,58.3879,0,U,55471,999,18540,.57858E-4,.1331E-4,0
STARLINK-5705,2023-015Z,2026-06-13T15:07:03.639936,15.27576014,.0001047,42.9995,139.9678,267.3601,92.7131,0,U,55472,999,18547,.30946E-4,.59E-5,0
STARLINK-5689,2023-015AB,2026-06-13T16:36:07.919712,15.27574496,.0001037,43.0029,157.8945,281.9935,78.0800,0,U,55474,999,18527,-.71979E-5,-.46E-5,0
STARLINK-5650,2023-015AC,2026-06-13T15:14:56.730048,15.27575193,.0001228,43.0022,147.0389,264.5027,95.5685,0,U,55475,999,18539,.15226E-5,-.22E-5,0
STARLINK-5685,2023-015AE,2026-06-13T15:38:18.360096,15.27580728,.000078,43.0009,139.2744,278.0137,82.0626,0,U,55477,999,18548,.33138E-4,.65E-5,0
STARLINK-5691,2023-015AF,2026-06-13T14:40:00.939072,15.27576337,.0001128,42.9988,136.4101,260.4258,99.6466,0,U,55478,999,18551,.27957E-4,.507E-5,0
STARLINK-5688,2023-015AG,2026-06-13T14:46:42.464928,15.27580762,.0001287,43.0068,139.8589,268.0026,92.0678,0,U,55479,999,18547,.34839E-4,.697E-5,0
STARLINK-5690,2023-015AH,2026-06-13T06:23:03.691680,15.27582051,.0001551,43.0063,159.7836,275.0389,85.0285,0,U,55480,999,18521,.38525E-4,.798E-5,0
STARLINK-5694,2023-015AJ,2026-06-13T06:48:58.804416,15.27583639,.000065,43.0014,160.0054,240.7390,119.3397,0,U,55481,999,18521,.19582E-4,.277E-5,0
STARLINK-5692,2023-015AL,2026-06-13T06:17:31.680672,15.27581038,.0001664,43.0033,159.8385,268.1048,91.9613,0,U,55483,999,18521,.34936E-4,.699E-5,0
STARLINK-5696,2023-015AM,2026-06-13T16:28:43.536000,15.27576335,.0001038,43.0033,157.8553,273.7118,86.3615,0,U,55484,999,18527,.15243E-5,-.22E-5,0
STARLINK-5695,2023-015AN,2026-06-13T07:00:05.548032,15.27575223,.0000869,43.0005,160.0541,287.4031,72.6725,0,U,55485,999,18521,.4187E-5,-.147E-5,0
STARLINK-5704,2023-015AP,2026-06-13T16:19:28.934400,15.27570489,.0001233,43.0038,157.7619,283.9656,76.1058,0,U,55486,999,18527,.99679E-4,.2481E-4,0
STARLINK-5701,2023-015AQ,2026-06-13T16:02:45.500352,15.27681728,.0001968,43.0090,157.7216,301.3654,58.7005,0,U,55487,999,18527,-.84856E-3,-.23612E-3,0
STARLINK-5706,2023-015AR,2026-06-13T15:59:06.568800,15.27584629,.000332,42.9966,157.6935,277.0935,82.9539,0,U,55488,999,18527,.2036E-4,.298E-5,0
STARLINK-5371,2023-015AS,2026-06-13T16:08:22.877664,15.27574090,.0000994,43.0028,157.7547,264.2424,95.8314,0,U,55489,999,18527,-.34324E-5,-.356E-5,0
STARLINK-5373,2023-015AT,2026-06-13T06:06:25.335360,15.27580131,.0001528,43.0031,159.7666,272.2038,87.8638,0,U,55490,999,18521,.27968E-4,.507E-5,0
STARLINK-5364,2023-015AU,2026-06-13T05:01:25.264416,15.27579744,.00013687,43.0035,141.9589,271.2182,88.8513,0,U,55491,999,18541,.79012088E-4,.1913E-4,0
STARLINK-5013,2023-015AV,2026-06-13T16:06:31.269600,15.27576598,.0001133,42.9997,157.7276,269.1891,90.8831,0,U,55492,999,18527,.98256E-5,.8E-7,0
STARLINK-5362,2023-015AW,2026-06-13T06:13:49.866816,15.27577150,.0001492,43.0024,159.8121,269.4605,90.6076,0,U,55493,999,18521,.21473E-5,-.203E-5,0
STARLINK-5344,2023-015AX,2026-06-13T16:10:13.384992,15.27576257,.0001355,42.9992,157.7578,269.4742,90.5954,0,U,55494,999,18527,.3456E-4,.689E-5,0
