STARLINK-5673           
1 55462U 23015P   26164.67120440  .00000583  00000+0  30712-4 0  9998
2 55462  43.0054 146.4536 0002143 281.6265  78.4347 15.27580559185407
STARLINK-5677           
1 55463U 23015Q   26164.70069740  .00024308  00000+0  11945-2 0  9994
2 55463  42.9972 154.3580 0002767 103.5612 256.5544 15.17604493185313
STARLINK-5676           
1 55464U 23015R   26164.22763895  .00000918  00000+0  42890-4 0  9990
2 55464  43.0027 149.1429 0002445 280.2149  79.8427 15.27580927185336
STARLINK-5674           
1 55465U 23015S   26164.67506574  .00000377  00000+0  23242-4 0  9998
2 55465  43.0051 146.4812 0001454 265.9689  94.0996 15.27579405185405
STARLINK-5628           
1 55466U 23015T   26164.23920345  .00000811  00000+0  38981-4 0  9996
2 55466  43.0054 149.2274 0001374 265.8350  94.2345 15.27581351185332
STARLINK-5679           
1 55467U 23015U   26164.66735609 -.00000685  00000+0 -15377-4 0  9996
2 55467  43.0038 146.4232 0001603 274.3484  85.7185 15.27573151185400
STARLINK-5672           
1 55468U 23015V   26164.23149331  .00000574  00000+0  30375-4 0  9991
2 55468  43.0053 149.1720 0001639 269.5608  90.5056 15.27580425185338
STARLINK-5681           
1 55469U 23015W   26164.67891580  .00000383  00000+0  23445-4 0  9998
2 55469  43.0090 146.5132 0002114 282.5351  77.5264 15.27582111185405
STARLINK-5708           
1 55470U 23015X   26164.23535177  .00000234  00000+0  18022-4 0  9999
2 55470  43.0030 149.1998 0001252 266.4987  93.5722 15.27578359185336
STARLINK-5711           
1 55471U 23015Y   26164.66992873  .00001331  00000+0  57858-4 0  9996
2 55471  42.9974 146.4362 0000876 301.6887  58.3879 15.27586129185403
STARLINK-5705           
1 55472U 23015Z   26164.62990324  .00000590  00000+0  30946-4 0  9997
2 55472  42.9995 139.9678 0001047 267.3601  92.7131 15.27576014185479
STARLINK-5689           
1 55474U 23015AB  26164.69175833 -.00000460  00000+0 -71979-5 0  9996
2 55474  43.0029 157.8945 0001037 281.9935  78.0800 15.27574496185278
STARLINK-5650           
1 55475U 23015AC  26164.63537882 -.00000220  00000+0  15226-5 0  9993
2 55475  43.0022 147.0389 0001228 264.5027  95.5685 15.27575193185399
STARLINK-5685           
1 55477U 23015AE  26164.65160139  .00000650  00000+0  33138-4 0  9991
2 55477  43.0009 139.2744 0000780 278.0137  82.0626 15.27580728185484
STARLINK-5691           
1 55478U 23015AF  26164.61112198  .00000507  00000+0  27957-4 0  9993
2 55478  42.9988 136.4101 0001128 260.4258  99.6466 15.27576337185512
STARLINK-5688           
1 55479U 23015AG  26164.61576927  .00000697  00000+0  34839-4 0  9995
2 55479  43.0068 139.8589 0001287 268.0026  92.0678 15.27580762185478
STARLINK-5690           
1 55480U 23015AH  26164.26601495  .00000798  00000+0  38525-4 0  9995
2 55480  43.0063 159.7836 0001551 275.0389  85.0285 15.27582051185216
STARLINK-5694           
1 55481U 23015AJ  26164.28401394  .00000277  00000+0  19582-4 0  9998
2 55481  43.0014 160.0054 0000650 240.7390 119.3397 15.27583639185218
STARLINK-5692           
1 55483U 23015AL  26164.26217223  .00000699  00000+0  34936-4 0  9992
2 55483  43.0033 159.8385 0001664 268.1048  91.9613 15.27581038185211
STARLINK-5696           
1 55484U 23015AM  26164.68661500 -.00000220  00000+0  15243-5 0  9992
2 55484  43.0033 157.8553 0001038 273.7118  86.3615 15.27576335185272
STARLINK-5695           
1 55485U 23015AN  26164.29173088 -.00000147  00000+0  41870-5 0  9992
2 55485  43.0005 160.0541 0000869 287.4031  72.6725 15.27575223185211
STARLINK-5704           
1 55486U 23015AP  26164.68019600  .00002481  00000+0  99679-4 0  9996
2 55486  43.0038 157.7619 0001233 283.9656  76.1058 15.27570489185270
STARLINK-5701           
1 55487U 23015AQ  26164.66858218 -.00023612  00000+0 -84856-3 0  9992
2 55487  43.0090 157.7216 0001968 301.3654  58.7005 15.27681728185277
STARLINK-5706           
1 55488U 23015AR  26164.66604825  .00000298  00000+0  20360-4 0  9990
2 55488  42.9966 157.6935 0003320 277.0935  82.9539 15.27584629185273
STARLINK-5371           
1 55489U 23015AS  26164.67248701 -.00000356  00000+0 -34324-5 0  9992
2 55489  43.0028 157.7547 0000994 264.2424  95.8314 15.27574090185275
STARLINK-5373           
1 55490U 23015AT  26164.25445990  .00000507  00000+0  27968-4 0  9998
2 55490  43.0031 159.7666 0001528 272.2038  87.8638 15.27580131185216
STARLINK-5364           
1 55491U 23015AU  26164.20932019  .00001913  00000+0  79012-4 0  9996
2 55491  43.0035 141.9589 0001368 271.2182  88.8513 15.27579744185412
STARLINK-5013           
1 55492U 23015AV  26164.67119525  .00000008  00000+0  98256-5 0  9993
2 55492  42.9997 157.7276 0001133 269.1891  90.8831 15.27576598185273
STARLINK-5362           
1 55493U 23015AW  26164.25960494 -.00000203  00000+0  21473-5 0  9992
2 55493  43.0024 159.8121 0001492 269.4605  90.6076 15.27577150185211
STARLINK-5344           
1 55494U 23015AX  26164.67376603  .00000689  00000+0  34560-4 0  9999
2 55494  42.9992 157.7578 0001355 269.4742  90.5954 15.27576257185274
